address_id,address,city,county,state,zip
1,6649 N Blue Gum St,New Orleans,Orleans,LA,70116
2,4 B Blue Ridge Blvd,Brighton,Livingston,MI,48116
3,8 W Cerritos Ave #54,Bridgeport,Gloucester,NJ,8014
4,639 Main St,Anchorage,Anchorage,AK,99501
5,34 Center St,Hamilton,Butler,OH,45011
6,3 Mcauley Dr,Ashland,Ashland,OH,44805
7,7 Eads St,Chicago,Cook,IL,60632
8,7 W Jackson Blvd,San Jose,Santa Clara,CA,95111
9,5 Boston Ave #88,Sioux Falls,Minnehaha,SD,57105
10,228 Runamuck Pl #2808,Baltimore,Baltimore City,MD,21224
11,2371 Jerrold Ave,Kulpsville,Montgomery,PA,19443
12,37275 St  Rt 17m M,Middle Island,Suffolk,NY,11953
13,25 E 75th St #69,Los Angeles,Los Angeles,CA,90034
14,98 Connecticut Ave Nw,Chagrin Falls,Geauga,OH,44023
15,56 E Morehead St,Laredo,Webb,TX,78045
16,73 State Road 434 E,Phoenix,Maricopa,AZ,85013
17,69734 E Carrillo St,Mc Minnville,Warren,TN,37110
18,322 New Horizon Blvd,Milwaukee,Milwaukee,WI,53207
19,1 State Route 27,Taylor,Wayne,MI,48180
20,394 Manchester Blvd,Rockford,Winnebago,IL,61109
21,6 S 33rd St,Aston,Delaware,PA,19014
22,6 Greenleaf Ave,San Jose,Santa Clara,CA,95111
23,618 W Yakima Ave,Irving,Dallas,TX,75062
24,74 S Westgate St,Albany,Albany,NY,12204
25,3273 State St,Middlesex,Middlesex,NJ,8846
26,1 Central Ave,Stevens Point,Portage,WI,54481
27,86 Nw 66th St #8673,Shawnee,Johnson,KS,66218
28,2 Cedar Ave #84,Easton,Talbot,MD,21601
29,90991 Thorburn Ave,New York,New York,NY,10011
30,386 9th Ave N,Conroe,Montgomery,TX,77301
31,74874 Atlantic Ave,Columbus,Franklin,OH,43215
32,366 South Dr,Las Cruces,Dona Ana,NM,88011
33,45 E Liberty St,Ridgefield Park,Bergen,NJ,7660
34,4 Ralph Ct,Dunellen,Middlesex,NJ,8812
35,2742 Distribution Way,New York,New York,NY,10025
36,426 Wolf St,Metairie,Jefferson,LA,70002
37,128 Bransten Rd,New York,New York,NY,10011
38,17 Morena Blvd,Camarillo,Ventura,CA,93012
39,775 W 17th St,San Antonio,Bexar,TX,78204
40,6980 Dorsett Rd,Abilene,Dickinson,KS,67410
41,2881 Lewis Rd,Prineville,Crook,OR,97754
42,7219 Woodfield Rd,Overland Park,Johnson,KS,66204
43,1048 Main St,Fairbanks,Fairbanks North Star,AK,99708
44,678 3rd Ave,Miami,Miami-Dade,FL,33196
45,20 S Babcock St,Fairbanks,Fairbanks North Star,AK,99712
46,2 Lighthouse Ave,Hopkins,Hennepin,MN,55343
47,38938 Park Blvd,Boston,Suffolk,MA,2128
48,5 Tomahawk Dr,Los Angeles,Los Angeles,CA,90006
49,762 S Main St,Madison,Dane,WI,53711
50,209 Decker Dr,Philadelphia,Philadelphia,PA,19132
51,4486 W O St #1,New York,New York,NY,10003
52,39 S 7th St,Tullahoma,Coffee,TN,37388
53,98839 Hawthorne Blvd #6101,Columbia,Richland,SC,29201
54,71 San Mateo Ave,Wayne,Delaware,PA,19087
55,76 Brooks St #9,Flemington,Hunterdon,NJ,8822
56,4545 Courthouse Rd,Westbury,Nassau,NY,11590
57,14288 Foster Ave #4121,Jenkintown,Montgomery,PA,19046
58,4 Otis St,Van Nuys,Los Angeles,CA,91405
59,65895 S 16th St,Providence,Providence,RI,2909
60,14302 Pennsylvania Ave,Huntingdon Valley,Montgomery,PA,19006
61,201 Hawk Ct,Providence,Providence,RI,2904
62,53075 Sw 152nd Ter #615,Monroe Township,Middlesex,NJ,8831
63,59 N Groesbeck Hwy,Austin,Travis,TX,78731
64,2664 Lewis Rd,Littleton,Douglas,CO,80126
65,59 Shady Ln #53,Milwaukee,Milwaukee,WI,53214
66,3305 Nabell Ave #679,New York,New York,NY,10009
67,18 Fountain St,Anchorage,Anchorage,AK,99515
68,7 W 32nd St,Erie,Erie,PA,16502
69,2853 S Central Expy,Glen Burnie,Anne Arundel,MD,21061
70,74 W College St,Boise,Ada,ID,83707
71,701 S Harrison Rd,San Francisco,San Francisco,CA,94104
72,1088 Pinehurst St,Chapel Hill,Orange,NC,27514
73,30 W 80th St #1995,San Carlos,San Mateo,CA,94070
74,20932 Hedley St,Concord,Contra Costa,CA,94520
75,2737 Pistorio Rd #9230,London,Madison,OH,43140
76,74989 Brandon St,Wellsville,Allegany,NY,14895
77,6 Kains Ave,Baltimore,Baltimore City,MD,21215
78,47565 W Grand Ave,Newark,Essex,NJ,7105
79,4284 Dorigo Ln,Chicago,Cook,IL,60647
80,6794 Lake Dr E,Newark,Essex,NJ,7104
81,31 Douglas Blvd #950,Clovis,Curry,NM,88101
82,44 W 4th St,Staten Island,Richmond,NY,10309
83,11279 Loytan St,Jacksonville,Duval,FL,32254
84,69 Marquette Ave,Hayward,Alameda,CA,94545
85,70 W Main St,Beachwood,Cuyahoga,OH,44122
86,461 Prospect Pl #316,Euless,Tarrant,TX,76040
87,47154 Whipple Ave Nw,Gardena,Los Angeles,CA,90247
88,37 Alabama Ave,Evanston,Cook,IL,60201
89,3777 E Richmond St #900,Akron,Summit,OH,44302
90,3 Fort Worth Ave,Philadelphia,Philadelphia,PA,19106
91,4800 Black Horse Pike,Burlingame,San Mateo,CA,94010
92,83649 W Belmont Ave,San Gabriel,Los Angeles,CA,91776
93,840 15th Ave,Waco,McLennan,TX,76708
94,1747 Calle Amanecer #2,Anchorage,Anchorage,AK,99501
95,99385 Charity St #840,San Jose,Santa Clara,CA,95110
96,68556 Central Hwy,San Leandro,Alameda,CA,94577
97,55 Riverside Ave,Indianapolis,Marion,IN,46202
98,7140 University Ave,Rock Springs,Sweetwater,WY,82901
99,64 5th Ave #1153,Mc Lean,Fairfax,VA,22102
100,3 Secor Rd,New Orleans,Orleans,LA,70112
101,4 Webbs Chapel Rd,Boulder,Boulder,CO,80303
102,524 Louisiana Ave Nw,San Leandro,Alameda,CA,94577
103,185 Blackstone Bldge,Honolulu,Honolulu,HI,96817
104,170 Wyoming Ave,Burnsville,Dakota,MN,55337
105,4 10th St W,High Point,Guilford,NC,27263
106,7 W Pinhook Rd,Lynbrook,Nassau,NY,11563
107,1 Commerce Way,Portland,Washington,OR,97224
108,64 Lakeview Ave,Beloit,Rock,WI,53511
109,3 Aspen St,Worcester,Worcester,MA,1602
110,32860 Sierra Rd,Miami,Miami-Dade,FL,33133
111,555 Main St,Erie,Erie,PA,16502
112,2 Se 3rd Ave,Mesquite,Dallas,TX,75149
113,2239 Shawnee Mission Pky,Tullahoma,Coffee,TN,37388
114,2726 Charcot Ave,Paterson,Passaic,NJ,7501
115,5161 Dorsett Rd,Homestead,Miami-Dade,FL,33030
116,55892 Jacksonville Rd,Owings Mills,Baltimore,MD,21117
117,5 N Cleveland Massillon Rd,Thousand Oaks,Ventura,CA,91362
118,7 Benton Dr,Honolulu,Honolulu,HI,96819
119,9390 S Howell Ave,Albany,Dougherty,GA,31701
120,8 County Center Dr #647,Boston,Suffolk,MA,2210
121,4646 Kaahumanu St,Hackensack,Bergen,NJ,7601
122,2 Monroe St,San Mateo,San Mateo,CA,94403
123,52777 Leaders Heights Rd,Ontario,San Bernardino,CA,91761
124,72868 Blackington Ave,Oakland,Alameda,CA,94606
125,9 Norristown Rd,Troy,Rensselaer,NY,12180
126,83 County Road 437 #8581,Clarks Summit,Lackawanna,PA,18411
127,1 N Harlem Ave #9,Orange,Essex,NJ,7050
128,90131 J St,Pittstown,Hunterdon,NJ,8867
129,8597 W National Ave,Cocoa,Brevard,FL,32922
130,6 Gilson St,Bronx,Bronx,NY,10468
131,65 W Maple Ave,Pearl City,Honolulu,HI,96782
132,866 34th Ave,Denver,Denver,CO,80231
133,798 Lund Farm Way,Rockaway,Morris,NJ,7866
134,9387 Charcot Ave,Absecon,Atlantic,NJ,8201
135,30553 Washington Rd,Plainfield,Union,NJ,7062
136,481 W Lemon St,Middleboro,Plymouth,MA,2346
137,4 Warehouse Point Rd #7,Chicago,Cook,IL,60638
138,4940 Pulaski Park Dr,Portland,Multnomah,OR,97202
139,627 Walford Ave,Dallas,Dallas,TX,75227
140,137 Pioneer Way,Chicago,Cook,IL,60604
141,61 13 Stoneridge #835,Findlay,Hancock,OH,45840
142,2409 Alabama Rd,Riverside,Riverside,CA,92501
143,8927 Vandever Ave,Waco,McLennan,TX,76707
144,134 Lewis Rd,Nashville,Davidson,TN,37211
145,9 N College Ave #3,Milwaukee,Milwaukee,WI,53216
146,60480 Old Us Highway 51,Preston,Caroline,MD,21655
147,4 Bloomfield Ave,Irving,Dallas,TX,75061
148,429 Tiger Ln,Beverly Hills,Los Angeles,CA,90212
149,54169 N Main St,Massapequa,Nassau,NY,11758
150,92 Main St,Atlantic City,Atlantic,NJ,8401
151,72 Mannix Dr,Cincinnati,Hamilton,OH,45203
152,12270 Caton Center Dr,Eugene,Lane,OR,97401
153,749 W 18th St #45,Smithfield,Johnston,NC,27577
154,8 Industry Ln,New York,New York,NY,10002
155,1 Huntwood Ave,Phoenix,Maricopa,AZ,85017
156,55262 N French Rd,Indianapolis,Marion,IN,46240
157,422 E 21st St,Syracuse,Onondaga,NY,13214
158,501 N 19th Ave,Cherry Hill,Camden,NJ,8002
159,455 N Main Ave,Garden City,Nassau,NY,11530
160,1844 Southern Blvd,Little Rock,Pulaski,AR,72202
161,2023 Greg St,Saint Paul,Ramsey,MN,55101
162,63381 Jenks Ave,Philadelphia,Philadelphia,PA,19134
163,6651 Municipal Rd,Houma,Terrebonne,LA,70360
164,81 Norris Ave #525,Ronkonkoma,Suffolk,NY,11779
165,6916 W Main St,Sacramento,Sacramento,CA,95827
166,9635 S Main St,Boise,Ada,ID,83704
167,17 Us Highway 111,Round Rock,Williamson,TX,78664
168,992 Civic Center Dr,Philadelphia,Philadelphia,PA,19123
169,303 N Radcliffe St,Hilo,Hawaii,HI,96720
170,73 Saint Ann St #86,Reno,Washoe,NV,89502
171,44 58th St,Wheeling,Cook,IL,60090
172,9745 W Main St,Randolph,Morris,NJ,7869
173,84 Bloomfield Ave,Spartanburg,Spartanburg,SC,29301
174,287 Youngstown Warren Rd,Hampstead,Carroll,MD,21074
175,6 Van Buren St,Mount Vernon,Westchester,NY,10553
176,229 N Forty Driv,New York,New York,NY,10011
177,2887 Knowlton St #5435,Berkeley,Alameda,CA,94710
178,523 Marquette Ave,Concord,Middlesex,MA,1742
179,3717 Hamann Industrial Pky,San Francisco,San Francisco,CA,94104
180,3 State Route 35 S,Paramus,Bergen,NJ,7652
181,82 N Highway 67,Oakley,Contra Costa,CA,94561
182,9 Murfreesboro Rd,Chicago,Cook,IL,60623
183,6 S Broadway St,Cedar Grove,Essex,NJ,7009
184,6 Harry L Dr #6327,Perrysburg,Wood,OH,43551
185,47939 Porter Ave,Gardena,Los Angeles,CA,90248
186,9 Wales Rd Ne #914,Homosassa,Citrus,FL,34448
187,195 13n N,Santa Clara,Santa Clara,CA,95054
188,99 Tank Farm Rd,Hazleton,Luzerne,PA,18201
189,4671 Alemany Blvd,Jersey City,Hudson,NJ,7304
190,98 University Dr,San Ramon,Contra Costa,CA,94583
191,50 E Wacker Dr,Bridgewater,Somerset,NJ,8807
192,70 Euclid Ave #722,Bohemia,Suffolk,NY,11716
193,326 E Main St #6496,Thousand Oaks,Ventura,CA,91362
194,406 Main St,Somerville,Somerset,NJ,8876
195,3 Elmwood Dr,Beaverton,Washington,OR,97005
196,9 Church St,Salem,Marion,OR,97302
197,9939 N 14th St,Riverton,Burlington,NJ,8077
198,5384 Southwyck Blvd,Douglasville,Douglas,GA,30135
199,97 Airport Loop Dr,Jacksonville,Duval,FL,32216
200,37855 Nolan Rd,Bangor,Penobscot,ME,4401
201,4252 N Washington Ave #9,Kennedale,Tarrant,TX,76060
202,42754 S Ash Ave,Buffalo,Erie,NY,14228
203,703 Beville Rd,Opa Locka,Miami-Dade,FL,33054
204,5 Harrison Rd,New York,New York,NY,10038
205,73 Southern Blvd,Philadelphia,Philadelphia,PA,19103
206,189 Village Park Rd,Crestview,Okaloosa,FL,32536
207,6 Middlegate Rd #106,San Francisco,San Francisco,CA,94107
208,1128 Delaware St,San Jose,Santa Clara,CA,95132
209,577 Parade St,South San Francisco,San Mateo,CA,94080
210,70 Mechanic St,Northridge,Los Angeles,CA,91325
211,4379 Highway 116,Philadelphia,Philadelphia,PA,19103
212,55 Hawthorne Blvd,Lafayette,Lafayette,LA,70506
213,7116 Western Ave,Dearborn,Wayne,MI,48126
214,2026 N Plankinton Ave #3,Austin,Travis,TX,78754
215,99586 Main St,Dallas,Dallas,TX,75207
216,8739 Hudson St,Vashon,King,WA,98070
217,383 Gunderman Rd #197,Coatesville,Chester,PA,19320
218,4441 Point Term Mkt,Philadelphia,Philadelphia,PA,19143
219,2972 Lafayette Ave,Gardena,Los Angeles,CA,90248
220,2140 Diamond Blvd,Rohnert Park,Sonoma,CA,94928
221,93 Redmond Rd #492,Orlando,Orange,FL,32803
222,3989 Portage Tr,Escondido,San Diego,CA,92025
223,1 Midway Rd,Westborough,Worcester,MA,1581
224,77132 Coon Rapids Blvd Nw,Conroe,Montgomery,TX,77301
225,755 Harbor Way,Milwaukee,Milwaukee,WI,53226
226,87 Sierra Rd,El Monte,Los Angeles,CA,91731
227,7667 S Hulen St #42,Yonkers,Westchester,NY,10701
228,75684 S Withlapopka Dr #32,Dallas,Dallas,TX,75227
229,5 Elmwood Park Blvd,Biloxi,Harrison,MS,39530
230,23 Palo Alto Sq,Miami,Miami-Dade,FL,33134
231,38062 E Main St,New York,New York,NY,10048
232,3958 S Dupont Hwy #7,Ramsey,Bergen,NJ,7446
233,560 Civic Center Dr,Ann Arbor,Washtenaw,MI,48103
234,3270 Dequindre Rd,Deer Park,Suffolk,NY,11729
235,1 Garfield Ave #7,Canton,Stark,OH,44707
236,9122 Carpenter Ave,New Haven,New Haven,CT,6511
237,48 Lenox St,Fairfax,Fairfax City,VA,22030
238,5 Little River Tpke,Wilmington,Middlesex,MA,1887
239,3 N Groesbeck Hwy,Toledo,Lucas,OH,43613
240,37 N Elm St #916,Tacoma,Pierce,WA,98409
241,433 Westminster Blvd #590,Roseville,Placer,CA,95661
242,66697 Park Pl #3224,Riverton,Fremont,WY,82501
243,96263 Greenwood Pl,Warren,Knox,ME,4864
244,8 Mcarthur Ln,Richboro,Bucks,PA,18954
245,8 Fair Lawn Ave,Tampa,Hillsborough,FL,33614
246,9 N 14th St,El Cajon,San Diego,CA,92020
247,9 Vanowen St,College Station,Brazos,TX,77840
248,18 Waterloo Geneva Rd,Highland Park,Lake,IL,60035
249,506 S Hacienda Dr,Atlantic City,Atlantic,NJ,8401
250,3732 Sherman Ave,Bridgewater,Somerset,NJ,8807
251,25657 Live Oak St,Brooklyn,Kings,NY,11226
252,4923 Carey Ave,Saint Louis,Saint Louis City,MO,63104
253,3196 S Rider Trl,Stockton,San Joaquin,CA,95207
254,3 Railway Ave #75,Little Falls,Passaic,NJ,7424
255,87393 E Highland Rd,Indianapolis,Marion,IN,46220
256,67 E Chestnut Hill Rd,Seattle,King,WA,98133
257,33 Lewis Rd #46,Burlington,Alamance,NC,27215
258,8100 Jacksonville Rd #7,Hays,Ellis,KS,67601
259,7 W Wabansia Ave #227,Orlando,Orange,FL,32822
260,25 Minters Chapel Rd #9,Minneapolis,Hennepin,MN,55401
261,6882 Torresdale Ave,Columbia,Richland,SC,29201
262,985 E 6th Ave,Santa Rosa,Sonoma,CA,95407
263,7 West Ave #1,Palatine,Cook,IL,60067
264,26659 N 13th St,Costa Mesa,Orange,CA,92626
265,669 Packerland Dr #1438,Denver,Denver,CO,80212
266,759 Eldora St,New Haven,New Haven,CT,6515
267,5 S Colorado Blvd #449,Bothell,Snohomish,WA,98021
268,944 Gaither Dr,Strongsville,Cuyahoga,OH,44136
269,66552 Malone Rd,Plaistow,Rockingham,NH,3865
270,77 Massillon Rd #822,Satellite Beach,Brevard,FL,32937
271,25346 New Rd,New York,New York,NY,10016
272,60 Fillmore Ave,Huntington Beach,Orange,CA,92647
273,57 Haven Ave #90,Southfield,Oakland,MI,48075
274,6538 E Pomona St #60,Indianapolis,Marion,IN,46222
275,6535 Joyce St,Wichita Falls,Wichita,TX,76301
276,78112 Morris Ave,North Haven,New Haven,CT,6473
277,96950 Hidden Ln,Aberdeen,Harford,MD,21001
278,3718 S Main St,New Orleans,Orleans,LA,70130
279,9677 Commerce Dr,Richmond,Richmond City,VA,23219
280,5 Green Pond Rd #4,Southampton,Bucks,PA,18966
281,636 Commerce Dr #42,Shakopee,Scott,MN,55379
282,42744 Hamann Industrial Pky #82,Miami,Miami-Dade,FL,33136
283,1950 5th Ave,Milwaukee,Milwaukee,WI,53209
284,61304 N French Rd,Somerset,Somerset,NJ,8873
285,87 Imperial Ct #79,Fargo,Cass,ND,58102
286,94 W Dodge Rd,Carson City,Carson City,NV,89701
287,4 58th St #3519,Scottsdale,Maricopa,AZ,85254
288,5221 Bear Valley Rd,Nashville,Davidson,TN,37211
289,9648 S Main,Salisbury,Wicomico,MD,21801
290,7 S San Marcos Rd,New York,New York,NY,10004
291,812 S Haven St,Amarillo,Randall,TX,79109
292,3882 W Congress St #799,Los Angeles,Los Angeles,CA,90016
293,4 E Colonial Dr,La Mesa,San Diego,CA,91942
294,45 2nd Ave #9759,Atlanta,Fulton,GA,30328
295,57254 Brickell Ave #372,Worcester,Worcester,MA,1602
296,8977 Connecticut Ave Nw #3,Niles,Berrien,MI,49120
297,9 Waydell St,Fairfield,Essex,NJ,7004
298,43 Huey P Long Ave,Lafayette,Lafayette,LA,70508
299,7563 Cornwall Rd #4462,Denver,Lancaster,PA,17517
300,22 Bridle Ln,Valley Park,Saint Louis,MO,63088
301,70099 E North Ave,Arlington,Tarrant,TX,76013
302,3211 E Northeast Loop,Tampa,Hillsborough,FL,33619
303,26 Montgomery St,Atlanta,Fulton,GA,30328
304,13252 Lighthouse Ave,Cathedral City,Riverside,CA,92234
305,206 Main St #2804,Lansing,Ingham,MI,48933
306,96541 W Central Blvd,Phoenix,Maricopa,AZ,85034
307,34 Saint George Ave #2,Bangor,Penobscot,ME,4401
308,47857 Coney Island Ave,Clinton,Prince Georges,MD,20735
309,8573 Lincoln Blvd,York,York,PA,17404
310,596 Santa Maria Ave #7913,Mesquite,Dallas,TX,75150
311,3829 Ventura Blvd,Butte,Silver Bow,MT,59701
312,13 S Hacienda Dr,Livingston,Essex,NJ,7039
313,40 9th Ave Sw #91,Waterford,Oakland,MI,48329
314,2845 Boulder Crescent St,Cleveland,Cuyahoga,OH,44103
315,33 State St,Abilene,Taylor,TX,79601
316,2 S 15th St,Fort Worth,Tarrant,TX,76107
317,4 Kohler Memorial Dr,Brooklyn,Kings,NY,11230
318,1 Rancho Del Mar Shopping C,Providence,Providence,RI,2903
319,3943 N Highland Ave,Lancaster,Lancaster,PA,17601
320,5 Williams St,Johnston,Providence,RI,2919
321,60 Old Dover Rd,Hialeah,Miami-Dade,FL,33014
322,8 Sheridan Rd,Jersey City,Hudson,NJ,7304
323,85092 Southern Blvd,San Antonio,Bexar,TX,78204
324,64 Newman Springs Rd E,Brooklyn,Kings,NY,11219
325,48 Stratford Ave,Pomona,Los Angeles,CA,91768
326,80 Pittsford Victor Rd #9,Cleveland,Cuyahoga,OH,44103
327,87163 N Main Ave,New York,New York,NY,10013
328,393 Lafayette Ave,Richmond,Richmond City,VA,23219
329,99 5th Ave #33,Trion,Chattooga,GA,30753
330,49 N Mays St,Broussard,Lafayette,LA,70518
331,993 Washington Ave,Nutley,Essex,NJ,7110
332,88 15th Ave Ne,Vestal,Broome,NY,13850
333,3381 E 40th Ave,Passaic,Passaic,NJ,7055
334,201 Ridgewood Rd,Moscow,Latah,ID,83843
335,39 Moccasin Dr,San Francisco,San Francisco,CA,94104
336,4 Carroll St,North Attleboro,Bristol,MA,2760
337,9581 E Arapahoe Rd,Rochester,Oakland,MI,48307
338,33 N Michigan Ave,Green Bay,Brown,WI,54301
339,2 S Biscayne Blvd,Baltimore,Baltimore City,MD,21230
340,8 Us Highway 22,Colorado Springs,El Paso,CO,80937
341,7422 Martin Ave #8,Toledo,Lucas,OH,43607
342,94 Chase Rd,Hyattsville,Prince Georges,MD,20785
343,8139 I Hwy 10 #92,New Bedford,Bristol,MA,2745
344,5 Cabot Rd,Mc Lean,Fairfax,VA,22102
345,3387 Ryan Dr,Hanover,Anne Arundel,MD,21076
346,3125 Packer Ave #9851,Austin,Travis,TX,78753
347,347 Chestnut St,Peoria,Maricopa,AZ,85381
348,8116 Mount Vernon Ave,Bucyrus,Crawford,OH,44820
349,8772 Old County Rd #5410,Kent,King,WA,98032
350,868 State St #38,Cincinnati,Hamilton,OH,45251
351,772 W River Dr,Bloomington,Monroe,IN,47404
352,73 W Barstow Ave,Arlington Heights,Cook,IL,60004
353,61047 Mayfield Ave,Brooklyn,Kings,NY,11223
354,2139 Santa Rosa Ave,Orlando,Orange,FL,32801
355,598 43rd St,Beverly Hills,Los Angeles,CA,90210
356,70295 Pioneer Ct,Brandon,Hillsborough,FL,33511
357,92899 Kalakaua Ave,El Paso,El Paso,TX,79925
358,395 S 6th St #2,El Cajon,San Diego,CA,92020
359,9506 Edgemore Ave,Bladensburg,Prince Georges,MD,20710
360,72119 S Walker Ave #63,Anaheim,Orange,CA,92801
361,369 Latham St #500,Saint Louis,Saint Louis City,MO,63102
362,3158 Runamuck Pl,Round Rock,Williamson,TX,78664
363,9 Plainsboro Rd #598,Greensboro,Guilford,NC,27409
364,8728 S Broad St,Coram,Suffolk,NY,11727
365,2215 Prosperity Dr,Lyndhurst,Bergen,NJ,7071
366,1 S Pine St,Memphis,Shelby,TN,38112
367,187 Market St,Atlanta,Fulton,GA,30342
368,94290 S Buchanan St,Pacifica,San Mateo,CA,94044
369,7061 N 2nd St,Burnsville,Dakota,MN,55337
370,10759 Main St,Scottsdale,Maricopa,AZ,85260
371,97 E 3rd St #9,Long Island City,Queens,NY,11101
372,82 Winsor St #54,Atlanta,Dekalb,GA,30340
373,41 Steel Ct,Northfield,Rice,MN,55057
374,49440 Dearborn St,Norwalk,Fairfield,CT,6854
375,7 S Beverly Dr,Fort Wayne,Allen,IN,46802
376,919 Wall Blvd,Meridian,Lauderdale,MS,39307
377,89 20th St E #779,Sterling Heights,Macomb,MI,48310
378,721 Interstate 45 S,Colorado Springs,El Paso,CO,80919
379,3 Lawton St,New York,New York,NY,10013
380,38 Pleasant Hill Rd,Hayward,Alameda,CA,94545
381,45 E Acacia Ct,Chicago,Cook,IL,60624
382,63728 Poway Rd #1,Scranton,Lackawanna,PA,18509
383,77 222 Dr,Oroville,Butte,CA,95965
384,53 W Carey St,Port Jervis,Orange,NY,12771
385,617 Nw 36th Ave,Brook Park,Cuyahoga,OH,44142
386,539 Coldwater Canyon Ave,Bloomfield,Essex,NJ,7003
387,735 Crawford Dr,Anchorage,Anchorage,AK,99501
388,910 Rahway Ave,Philadelphia,Philadelphia,PA,19102
389,7 Tarrytown Rd,Cincinnati,Hamilton,OH,45217
390,35433 Blake St #588,Gardena,Los Angeles,CA,90248
391,29 Cherry St #7073,Des Moines,Polk,IA,50315
392,810 N La Brea Ave,King of Prussia,Montgomery,PA,19406
393,987 Main St,Raleigh,Wake,NC,27601
394,36 Enterprise St Se,Richland,Benton,WA,99352
395,8429 Miller Rd,Pelham,Westchester,NY,10803
396,5 W 7th St,Parkville,Baltimore,MD,21234
397,2 Flynn Rd,Hicksville,Nassau,NY,11801
398,2094 Ne 36th Ave,Worcester,Worcester,MA,1603
399,649 Tulane Ave,Tulsa,Tulsa,OK,74105
400,2094 Montour Blvd,Muskegon,Muskegon,MI,49442
401,393 Hammond Dr,Lafayette,Lafayette,LA,70506
402,8590 Lake Lizzie Dr,Bowling Green,Wood,OH,43402
403,87895 Concord Rd,La Mesa,San Diego,CA,91942
404,46314 Route 130,Bridgeport,Fairfield,CT,6610
405,4 Cowesett Ave,Kearny,Hudson,NJ,7032
406,95 Main Ave #2,Barberton,Summit,OH,44203
407,28 S 7th St #2824,Englewood,Bergen,NJ,7631
408,79 S Howell Ave,Grand Rapids,Kent,MI,49546
409,36 Lancaster Dr Se,Pearl,Rankin,MS,39208
410,2759 Livingston Ave,Memphis,Shelby,TN,38118
411,17 Jersey Ave,Englewood,Arapahoe,CO,80110
412,2 W Grand Ave,Memphis,Shelby,TN,38112
413,18 Coronado Ave #563,Pasadena,Los Angeles,CA,91106
414,72 Beechwood Ter,Chicago,Cook,IL,60657
415,92 Broadway,Astoria,Queens,NY,11103
416,39 Franklin Ave,Richland,Benton,WA,99352
417,4 Iwaena St,Baltimore,Baltimore City,MD,21202
418,32820 Corkwood Rd,Newark,Essex,NJ,7104
419,34 Raritan Center Pky,Bellflower,Los Angeles,CA,90706
420,6201 S Nevada Ave,Toms River,Ocean,NJ,8755
421,78 Maryland Dr #146,Denville,Morris,NJ,7834
422,76598 Rd  I 95 #1,Denver,Denver,CO,80216
423,1610 14th St Nw,Newport News,Newport News City,VA,23608
424,86350 Roszel Rd,Phoenix,Maricopa,AZ,85012
425,1644 Clove Rd,Miami,Miami-Dade,FL,33155
426,9 W Central Ave,Phoenix,Maricopa,AZ,85013
427,27846 Lafayette Ave,Oak Hill,Volusia,FL,32759
428,10276 Brooks St,San Francisco,San Francisco,CA,94105
429,1 Century Park E,San Diego,San Diego,CA,92110
430,9 State Highway 57 #22,Jersey City,Hudson,NJ,7306
431,4 S Washington Ave,San Bernardino,San Bernardino,CA,92410
432,25 Se 176th Pl,Cambridge,Middlesex,MA,2138
433,105 Richmond Valley Rd,Escondido,San Diego,CA,92025
434,22 Spruce St #595,Gardena,Los Angeles,CA,90248
435,2 W Beverly Blvd,Harrisburg,Dauphin,PA,17110
436,72 Southern Blvd,Mesa,Maricopa,AZ,85204
437,1 Washington St,Lake Worth,Palm Beach,FL,33461
438,90177 N 55th Ave,Nashville,Davidson,TN,37211
439,9 Tower Ave,Burlington,Boone,KY,41005
440,278 Bayview Ave,Milan,Monroe,MI,48160
441,80312 W 32nd St,Conroe,Montgomery,TX,77301
442,82 Us Highway 46,Clifton,Passaic,NJ,7011
443,4 Stovall St #72,Union City,Hudson,NJ,7087
444,19 Amboy Ave,Miami,Miami-Dade,FL,33142
445,63 Smith Ln #8343,Moss,Clay,TN,38575
446,11360 S Halsted St,Santa Ana,Orange,CA,92705
447,26849 Jefferson Hwy,Rolling Meadows,Cook,IL,60008
448,2500 Pringle Rd Se #508,Hatfield,Montgomery,PA,19440
449,65 Mountain View Dr,Whippany,Morris,NJ,7981
450,1 N San Saba,Erie,Erie,PA,16501
451,51120 State Route 18,Salt Lake City,Salt Lake,UT,84115
452,1482 College Ave,Fayetteville,Cumberland,NC,28301
453,4119 Metropolitan Dr,Los Angeles,Los Angeles,CA,90021
454,2167 Sierra Rd,East Lansing,Ingham,MI,48823
455,6 Sunrise Ave,Utica,Oneida,NY,13501
456,55713 Lake City Hwy,South Bend,St Joseph,IN,46601
457,75698 N Fiesta Blvd,Orlando,Orange,FL,32806
458,88 Sw 28th Ter,Harrison,Hudson,NJ,7029
459,7 Flowers Rd #403,Trenton,Mercer,NJ,8611
460,4 Nw 12th St #3849,Madison,Dane,WI,53717
461,2 A Kelley Dr,Katonah,Westchester,NY,10536
462,88827 Frankford Ave,Greensboro,Guilford,NC,27401
463,2 W Scyene Rd #3,Baltimore,Baltimore City,MD,21217
464,62260 Park Stre,Monroe Township,Middlesex,NJ,8831
465,3424 29th St Se,Kerrville,Kerr,TX,78028
466,35 E Main St #43,Elk Grove Village,Cook,IL,60007
467,7163 W Clark Rd,Freehold,Monmouth,NJ,7728
468,21575 S Apple Creek Rd,Omaha,Douglas,NE,68124
469,747 Leonis Blvd,Annandale,Fairfax,VA,22003
470,13 Gunnison St,Plano,Collin,TX,75075
471,18 3rd Ave,New York,New York,NY,10016
472,62 W Austin St,Syosset,Nassau,NY,11791
473,177 S Rider Trl #52,Crystal River,Citrus,FL,34429
474,2 W Mount Royal Ave,Fortville,Hancock,IN,46040
475,1953 Telegraph Rd,Saint Joseph,Buchanan,MO,64504
476,63517 Dupont St,Jackson,Hinds,MS,39211
477,5 E Truman Rd,Abilene,Taylor,TX,79602
478,251 Park Ave #979,Saratoga,Santa Clara,CA,95070
479,43496 Commercial Dr #29,Cherry Hill,Camden,NJ,8003
480,2184 Worth St,Hayward,Alameda,CA,94545
481,50126 N Plankinton Ave,Longwood,Seminole,FL,32750
482,38773 Gravois Ave,Cheyenne,Laramie,WY,82001
483,16452 Greenwich St,Garden City,Nassau,NY,11530
484,40 Cambridge Ave,Madison,Dane,WI,53715
485,20113 4th Ave E,Kearny,Hudson,NJ,7032
486,6 Ridgewood Center Dr,Old Forge,Lackawanna,PA,18518
487,469 Outwater Ln,San Diego,San Diego,CA,92126
488,62 Monroe St,Thousand Palms,Riverside,CA,92276
489,3338 A Lockport Pl #6,Margate City,Atlantic,NJ,8402
490,9 Hwy,Providence,Providence,RI,2906
491,8284 Hart St,Abilene,Dickinson,KS,67410
492,5 Washington St #1,Roseville,Placer,CA,95678
493,8 S Haven St,Daytona Beach,Volusia,FL,32114
494,9 Front St,Washington,District of Columbia,DC,20001
495,1933 Packer Ave #2,Novato,Marin,CA,94945
496,67 Rv Cent,Boise,Ada,ID,83709
497,2 Sw Nyberg Rd,Elkhart,Elkhart,IN,46514
498,89992 E 15th St,Alliance,Box Butte,NE,69301
499,61556 W 20th Ave,Seattle,King,WA,98104
500,63 E Aurora Dr,Orlando,Orange,FL,32804
